STARLINK-31719          
1 59495U 24071M   26068.17238148  .00002788  00000+0  11079-3 0  9997
2 59495  42.9990 342.9151 0002138 231.8479 128.2180 15.27581616108126
STARLINK-36554          
1 67502U 26012K   26067.71268370  .00032833  00000+0  11969-2 0  9992
2 67502  42.9934 319.8184 0000695 339.2059  20.8765 15.27591469  7619
